{"type": "FeatureCollection", "bbox": [-91.159473, 37.722394, -89.874483, 39.12338], "features": [{"type": "Feature", "geometry": {"type": "Point", "coordinates": [-90.480505, 38.786912]}, "properties": {"id": "1", "school": "Academy of the Sacred Heart", "type": "Elementary School", "street": "619 North 2nd Street", "city": "St. Charles", "state": "MO", "zip": "63301-2035"}}, {"type": "Feature", "geometry": {"type": "Point", "coordinates": [-90.629149, 38.796753]}, "properties": {"id": "2", "school": "All Saints School (St. Peters)", "type": "Elementary School", "street": "5 McMenamy Road", "city": "St. Peters", "state": "MO", "zip": "63376-1517"}}, {"type": "Feature", "geometry": {"type": "Point", "coordinates": [-90.374899, 38.641577]}, "properties": {"id": "3", "school": "Annunziata School", "type": "Special Education School", "street": "9333 Clayton Road", "city": "St. Louis", "state": "MO", "zip": "63124-1511"}}, {"type": "Feature", "geometry": {"type": "Point", "coordinates": [-90.577674, 38.661524]}, "properties": {"id": "4", "school": "Ascension - Chesterfield Learning Center", "type": "Special Education School", "street": "238 Santa Maria Drive", "city": "Chesterfield", "state": "MO", "zip": "63005-1631"}}, {"type": "Feature", "geometry": {"type": "Point", "coordinates": [-90.577674, 38.661524]}, "properties": {"id": "5", "school": "Ascension School (Chesterfield)", "type": "Elementary School", "street": "238 Santa Maria Drive", "city": "Chesterfield", "state": "MO", "zip": "63005-3005"}}, {"type": "Feature", "geometry": {"type": "Point", "coordinates": [-90.360374, 38.500303]}, "properties": {"id": "6", "school": "Assumption School (Mattese)", "type": "Elementary School", "street": "4709 Mattis Road", "city": "St. Louis", "state": "MO", "zip": "63128-2821"}}, {"type": "Feature", "geometry": {"type": "Point", "coordinates": [-90.701701, 38.813104]}, "properties": {"id": "7", "school": "Assumption School (O'Fallon)", "type": "Elementary School", "street": "203 W. Third Street", "city": "OFallon", "state": "MO", "zip": "63366-1611"}}, {"type": "Feature", "geometry": {"type": "Point", "coordinates": [-90.643117, 38.65371]}, "properties": {"id": "8", "school": "Barat Academy", "type": "High School", "street": "17815 Wild Horse Creek Road", "city": "Chesterfield", "state": "MO", "zip": "63005-3614"}}, {"type": "Feature", "geometry": {"type": "Point", "coordinates": [-90.295483, 38.581481]}, "properties": {"id": "9", "school": "Bishop DuBourg High School", "type": "High School", "street": "5850 Eichelberger St.", "city": "St. Louis", "state": "MO", "zip": "63109-3494"}}, {"type": "Feature", "geometry": {"type": "Point", "coordinates": [-90.298984, 38.748155]}, "properties": {"id": "10", "school": "Blessed Teresa of Calcutta School", "type": "Elementary School", "street": "150 N. Elizabeth Avenue", "city": "Ferguson", "state": "MO", "zip": "63135-1202"}}, {"type": "Feature", "geometry": {"type": "Point", "coordinates": [-90.198194, 38.748669]}, "properties": {"id": "11", "school": "Cardinal Ritter College Prep", "type": "High School", "street": "701 N. Spring Ave.", "city": "St. Louis", "state": "MO", "zip": "63108-3603"}}, {"type": "Feature", "geometry": {"type": "Point", "coordinates": [-90.40748, 38.649198]}, "properties": {"id": "12", "school": "Chaminade College Preparatory Middle School", "type": "Elementary School", "street": "425 South Lindbergh Boulevard", "city": "St. Louis", "state": "MO", "zip": "63131-2729"}}, {"type": "Feature", "geometry": {"type": "Point", "coordinates": [-90.40748, 38.649198]}, "properties": {"id": "13", "school": "Chaminade College Preparatory School", "type": "High School", "street": "425 South Lindbergh Boulevard", "city": "St. Louis", "state": "MO", "zip": "63131-2729"}}, {"type": "Feature", "geometry": {"type": "Point", "coordinates": [-90.325724, 38.663778]}, "properties": {"id": "14", "school": "Christ the King School", "type": "Elementary School", "street": "7324 Balson Avenue", "city": "University City", "state": "MO", "zip": "63130-2901"}}, {"type": "Feature", "geometry": {"type": "Point", "coordinates": [-90.22067, 38.784959]}, "properties": {"id": "15", "school": "Christ, Light of the Nations School", "type": "Elementary School", "street": "1650 Redman Rd.", "city": "St. Louis", "state": "MO", "zip": "63138-1743"}}, {"type": "Feature", "geometry": {"type": "Point", "coordinates": [-90.494127, 38.599797]}, "properties": {"id": "16", "school": "Christ, Prince of Peace School", "type": "Elementary School", "street": "417 Weidman Road", "city": "Manchester", "state": "MO", "zip": "63011-4431"}}, {"type": "Feature", "geometry": {"type": "Point", "coordinates": [-90.458779, 38.63975]}, "properties": {"id": "17", "school": "Christian Brothers College High School", "type": "High School", "street": "1850 De La Salle Drive", "city": "St. Louis", "state": "MO", "zip": "63141-8661"}}, {"type": "Feature", "geometry": {"type": "Point", "coordinates": [-90.344279, 38.547374]}, "properties": {"id": "18", "school": "Cor Jesu Academy", "type": "High School", "street": "10230 Gravois Road", "city": "St. Louis", "state": "MO", "zip": "63123-4030"}}, {"type": "Feature", "geometry": {"type": "Point", "coordinates": [-90.445123, 38.66128]}, "properties": {"id": "19", "school": "De Smet Jesuit High School", "type": "High School", "street": "233 North New Ballas Road", "city": "St. Louis", "state": "MO", "zip": "63141-7530"}}, {"type": "Feature", "geometry": {"type": "Point", "coordinates": [-90.501024, 38.798254]}, "properties": {"id": "20", "school": "Duchesne High School", "type": "High School", "street": "2550 Elm St.", "city": "St. Charles", "state": "MO", "zip": "63301-1494"}}, {"type": "Feature", "geometry": {"type": "Point", "coordinates": [-90.567097, 38.23296]}, "properties": {"id": "21", "school": "Good Shepherd School", "type": "Elementary School", "street": "701 Third Street", "city": "Hillsboro", "state": "MO", "zip": "63050-4339"}}, {"type": "Feature", "geometry": {"type": "Point", "coordinates": [-90.380719, 38.43437]}, "properties": {"id": "22", "school": "Holy Child School", "type": "Elementary School", "street": "2316 Church St.", "city": "Arnold", "state": "MO", "zip": "63010-2110"}}, {"type": "Feature", "geometry": {"type": "Point", "coordinates": [-90.359826, 38.576159]}, "properties": {"id": "23", "school": "Holy Cross Academy - Annunciation Campus", "type": "Elementary School", "street": "16 W. Glendale Rd.", "city": "St. Louis", "state": "MO", "zip": "63119-4096"}}, {"type": "Feature", "geometry": {"type": "Point", "coordinates": [-90.359531, 38.559679]}, "properties": {"id": "24", "school": "Holy Cross Academy - Our Lady of Providence Campus", "type": "Elementary School", "street": "8874 Pardee Road", "city": "St. Louis", "state": "MO", "zip": "63123-1017"}}, {"type": "Feature", "geometry": {"type": "Point", "coordinates": [-90.320049, 38.568597]}, "properties": {"id": "25", "school": "Holy Cross Academy - St. Dominic Savio Campus", "type": "Elementary School", "street": "7748 Mackenzie Road", "city": "Affton", "state": "MO", "zip": "63123-2719"}}, {"type": "Feature", "geometry": {"type": "Point", "coordinates": [-90.32836, 38.593891]}, "properties": {"id": "26", "school": "Holy Cross Academy - St. Michael the Archangel Campus", "type": "Elementary School", "street": "7630 Sutherland Avenue", "city": "St. Louis", "state": "MO", "zip": "63119-2855"}}, {"type": "Feature", "geometry": {"type": "Point", "coordinates": [-90.556991, 38.584537]}, "properties": {"id": "27", "school": "Holy Infant School", "type": "Elementary School", "street": "248 New Ballwin Road", "city": "Ballwin", "state": "MO", "zip": "63021-4720"}}, {"type": "Feature", "geometry": {"type": "Point", "coordinates": [-90.348501, 38.592138]}, "properties": {"id": "28", "school": "Holy Redeemer School", "type": "Elementary School", "street": "341 E. Lockwood Avenue", "city": "Webster Groves", "state": "MO", "zip": "63119-3134"}}, {"type": "Feature", "geometry": {"type": "Point", "coordinates": [-91.159473, 38.813191]}, "properties": {"id": "29", "school": "Holy Rosary School", "type": "Elementary School", "street": "716 E. Booneslick Road", "city": "Warrenton", "state": "MO", "zip": "63383-2216"}}, {"type": "Feature", "geometry": {"type": "Point", "coordinates": [-90.432329, 38.734237]}, "properties": {"id": "30", "school": "Holy Spirit School", "type": "Elementary School", "street": "3120 Parkwood Lane", "city": "Maryland Heights", "state": "MO", "zip": "63043-1333"}}, {"type": "Feature", "geometry": {"type": "Point", "coordinates": [-90.389516, 38.724651]}, "properties": {"id": "31", "school": "Holy Trinity School", "type": "Elementary School", "street": "10901 St. Henry Lane", "city": "St. Ann", "state": "MO", "zip": "63074-2439"}}, {"type": "Feature", "geometry": {"type": "Point", "coordinates": [-90.351062, 38.638257]}, "properties": {"id": "32", "school": "Immacolata School", "type": "Elementary School", "street": "8910 Clayton Road", "city": "Richmond Heights", "state": "MO", "zip": "63117-1002"}}, {"type": "Feature", "geometry": {"type": "Point", "coordinates": [-90.756973, 38.767163]}, "properties": {"id": "33", "school": "Immaculate Conception School (Dardenne Prairie)", "type": "Elementary School", "street": "2089 Hanley Road", "city": "Dardenne Prairie", "state": "MO", "zip": "63368-6735"}}, {"type": "Feature", "geometry": {"type": "Point", "coordinates": [-90.77953, 38.936948]}, "properties": {"id": "34", "school": "Immaculate Conception School (Old Monroe)", "type": "Elementary School", "street": "120 Maryknoll Road", "city": "Old Monroe", "state": "MO", "zip": "63369-2329"}}, {"type": "Feature", "geometry": {"type": "Point", "coordinates": [-91.008693, 38.446964]}, "properties": {"id": "35", "school": "Immaculate Conception School (Union)", "type": "Elementary School", "street": "6 W. State Street", "city": "Union", "state": "MO", "zip": "63084-1337"}}, {"type": "Feature", "geometry": {"type": "Point", "coordinates": [-90.312999, 38.699445]}, "properties": {"id": "36", "school": "Incarnate Word Academy", "type": "High School", "street": "2788 Normandy Drive", "city": "St. Louis", "state": "MO", "zip": "63121"}}, {"type": "Feature", "geometry": {"type": "Point", "coordinates": [-90.496767, 38.679804]}, "properties": {"id": "37", "school": "Incarnate Word School", "type": "Elementary School", "street": "13416 Olive Boulevard", "city": "Chesterfield", "state": "MO", "zip": "63017"}}, {"type": "Feature", "geometry": {"type": "Point", "coordinates": [-90.327782, 38.630732]}, "properties": {"id": "38", "school": "Little Flower School", "type": "Elementary School", "street": "1275 Boland Place", "city": "Richmond Heights", "state": "MO", "zip": "63117-1459"}}, {"type": "Feature", "geometry": {"type": "Point", "coordinates": [-90.236489, 38.641822]}, "properties": {"id": "39", "school": "Loyola Academy", "type": "Elementary School", "street": "3851 Washington Avenue", "city": "St. Louis", "state": "MO", "zip": "63108-3405"}}, {"type": "Feature", "geometry": {"type": "Point", "coordinates": [-90.256439, 38.600117]}, "properties": {"id": "40", "school": "Marian Middle School", "type": "Elementary School", "street": "4130 Wyoming Avenue", "city": "St. Louis", "state": "MO", "zip": "63116-3835"}}, {"type": "Feature", "geometry": {"type": "Point", "coordinates": [-90.375956, 38.584016]}, "properties": {"id": "41", "school": "Mary, Queen of Peace School", "type": "Elementary School", "street": "680 W. Lockwood Blvd.", "city": "Webster Groves", "state": "MO", "zip": "63119-3540"}}, {"type": "Feature", "geometry": {"type": "Point", "coordinates": [-90.198883, 38.660514]}, "properties": {"id": "42", "school": "Most Holy Trinity Catholic School & Academy", "type": "Elementary School", "street": "1435 Mallinckrodt St.", "city": "St. Louis", "state": "MO", "zip": "63107-3795"}}, {"type": "Feature", "geometry": {"type": "Point", "coordinates": [-90.620232, 38.505138]}, "properties": {"id": "43", "school": "Most Sacred Heart School", "type": "Elementary School", "street": "350 E. Fourth Street", "city": "Eureka", "state": "MO", "zip": "63025-1949"}}, {"type": "Feature", "geometry": {"type": "Point", "coordinates": [-90.341496, 38.589742]}, "properties": {"id": "44", "school": "Nerinx Hall", "type": "High School", "street": "530 East Lockwood Avenue", "city": "St. Louis", "state": "MO", "zip": "63119"}}, {"type": "Feature", "geometry": {"type": "Point", "coordinates": [-90.271898, 38.52362]}, "properties": {"id": "45", "school": "Notre Dame High School", "type": "High School", "street": "320 East Ripa Avenue", "city": "St. Louis", "state": "MO", "zip": "63125"}}, {"type": "Feature", "geometry": {"type": "Point", "coordinates": [-90.302788, 38.730097]}, "properties": {"id": "46", "school": "Our Lady of Guadalupe School", "type": "Elementary School", "street": "1115 S. Florissant Road", "city": "Ferguson", "state": "MO", "zip": "63121-1109"}}, {"type": "Feature", "geometry": {"type": "Point", "coordinates": [-90.320511, 38.647084]}, "properties": {"id": "47", "school": "Our Lady of Lourdes School (University City)", "type": "Elementary School", "street": "7157 Northmoor Drive", "city": "St. Louis", "state": "MO", "zip": "63105-2107"}}, {"type": "Feature", "geometry": {"type": "Point", "coordinates": [-91.002485, 38.547298]}, "properties": {"id": "48", "school": "Our Lady of Lourdes School (Washington)", "type": "Elementary School", "street": "950 Madison Ave.", "city": "Washington", "state": "MO", "zip": "63090-4894"}}, {"type": "Feature", "geometry": {"type": "Point", "coordinates": [-90.406793, 38.651397]}, "properties": {"id": "49", "school": "Our Lady of the Pillar School", "type": "Elementary School", "street": "403 S. Lindbergh Blvd.", "city": "St. Louis", "state": "MO", "zip": "63131-2738"}}, {"type": "Feature", "geometry": {"type": "Point", "coordinates": [-90.39595, 38.22061]}, "properties": {"id": "50", "school": "Our Lady School", "type": "Elementary School", "street": "1599 St. Marys Lane", "city": "Festus", "state": "MO", "zip": "63028-1557"}}, {"type": "Feature", "geometry": {"type": "Point", "coordinates": [-90.588576, 38.406484]}, "properties": {"id": "51", "school": "Our Lady, Queen of Peace School", "type": "Elementary School", "street": "4675 Notre Dame Lane", "city": "House Springs", "state": "MO", "zip": "63051-2046"}}, {"type": "Feature", "geometry": {"type": "Point", "coordinates": [-90.306872, 38.443001]}, "properties": {"id": "52", "school": "Queen of All Saints School", "type": "Elementary School", "street": "6611 Christopher Drive", "city": "St. Louis", "state": "MO", "zip": "63129-4919"}}, {"type": "Feature", "geometry": {"type": "Point", "coordinates": [-90.253725, 38.641772]}, "properties": {"id": "53", "school": "Rosati-Kain High School", "type": "High School", "street": "4389 Lindell Blvd.", "city": "St. Louis", "state": "MO", "zip": "63108-2791"}}, {"type": "Feature", "geometry": {"type": "Point", "coordinates": [-90.325991, 38.794831]}, "properties": {"id": "54", "school": "Sacred Heart School - Flor. Kindergarten", "type": "Elementary School", "street": "751 N. Jefferson Street", "city": "Florissant", "state": "MO", "zip": "63031-5003"}}, {"type": "Feature", "geometry": {"type": "Point", "coordinates": [-90.351314, 38.805499]}, "properties": {"id": "55", "school": "Sacred Heart School (Florissant)", "type": "Elementary School", "street": "501 St. Louis Street", "city": "Florissant", "state": "MO", "zip": "63031-5031"}}, {"type": "Feature", "geometry": {"type": "Point", "coordinates": [-90.962359, 38.978412]}, "properties": {"id": "56", "school": "Sacred Heart School (Troy)", "type": "Elementary School", "street": "110 Thompson Drive", "city": "Troy", "state": "MO", "zip": "63379-2321"}}, {"type": "Feature", "geometry": {"type": "Point", "coordinates": [-90.492493, 38.551721]}, "properties": {"id": "57", "school": "Sacred Heart School (Valley Park)", "type": "Elementary School", "street": "12 Ann Avenue", "city": "Valley Park", "state": "MO", "zip": "63088-1606"}}, {"type": "Feature", "geometry": {"type": "Point", "coordinates": [-90.277124, 38.616051]}, "properties": {"id": "58", "school": "Sacred Heart Villa", "type": "Elementary School", "street": "2108 Macklind Ave.", "city": "St. Louis", "state": "MO", "zip": "63110-2917"}}, {"type": "Feature", "geometry": {"type": "Point", "coordinates": [-90.541623, 38.77773]}, "properties": {"id": "59", "school": "Seton Regional Catholic School", "type": "Elementary School", "street": "1 Seton Ct.", "city": "St. Charles", "state": "MO", "zip": "63303-3365"}}, {"type": "Feature", "geometry": {"type": "Point", "coordinates": [-90.291136, 38.596691]}, "properties": {"id": "60", "school": "South City Catholic Academy", "type": "Elementary School", "street": "5821 Pernod Ave", "city": "St. Louis", "state": "MO", "zip": "63139-1906"}}, {"type": "Feature", "geometry": {"type": "Point", "coordinates": [-90.291136, 38.596691]}, "properties": {"id": "61", "school": "South City Catholic Academy Learning Center", "type": "Special Education School", "street": "5821 Pernod Avenue", "city": "St. Louis", "state": "MO", "zip": "63139-1903"}}, {"type": "Feature", "geometry": {"type": "Point", "coordinates": [-90.252806, 38.023217]}, "properties": {"id": "62", "school": "St. Agnes School", "type": "Elementary School", "street": "PO Box 15430 St. Agnes Drive", "city": "Bloomsdale", "state": "MO", "zip": "63627-0154"}}, {"type": "Feature", "geometry": {"type": "Point", "coordinates": [-90.644454, 38.597689]}, "properties": {"id": "63", "school": "St. Alban Roe School", "type": "Elementary School", "street": "2005 Shepard Road", "city": "Wildwood", "state": "MO", "zip": "63038-1340"}}, {"type": "Feature", "geometry": {"type": "Point", "coordinates": [-91.05431, 39.12338]}, "properties": {"id": "64", "school": "St. Alphonsus School", "type": "Elementary School", "street": "25 St. Alphonsus Road", "city": "Silex", "state": "MO", "zip": "63377-3217"}}, {"type": "Feature", "geometry": {"type": "Point", "coordinates": [-90.271131, 38.615366]}, "properties": {"id": "65", "school": "St. Ambrose School", "type": "Elementary School", "street": "5110 Wilson Avenue", "city": "St. Louis", "state": "MO", "zip": "63110-3110"}}, {"type": "Feature", "geometry": {"type": "Point", "coordinates": [-90.300844, 38.705061]}, "properties": {"id": "66", "school": "St. Ann School", "type": "Elementary School", "street": "7532 Natural Bridge Road", "city": "Normandy", "state": "MO", "zip": "63121-4903"}}, {"type": "Feature", "geometry": {"type": "Point", "coordinates": [-91.158952, 38.215218]}, "properties": {"id": "67", "school": "St. Anthony School (Sullivan)", "type": "Elementary School", "street": "119 W. Springfield Avenue", "city": "Sullivan", "state": "MO", "zip": "63080-1523"}}, {"type": "Feature", "geometry": {"type": "Point", "coordinates": [-90.742943, 38.483237]}, "properties": {"id": "68", "school": "St. Bridget of Kildare School", "type": "Elementary School", "street": "223 W. Union Street", "city": "Pacific", "state": "MO", "zip": "63069-1422"}}, {"type": "Feature", "geometry": {"type": "Point", "coordinates": [-90.378919, 38.526772]}, "properties": {"id": "69", "school": "St. Catherine Laboure School (Sappington)", "type": "Elementary School", "street": "9750 Sappington Road", "city": "St. Louis", "state": "MO", "zip": "63128-1292"}}, {"type": "Feature", "geometry": {"type": "Point", "coordinates": [-90.249741, 38.568675]}, "properties": {"id": "70", "school": "St. Cecilia School and Academy", "type": "Elementary School", "street": "906 Eichelberger St.", "city": "St. Louis", "state": "MO", "zip": "63111-1603"}}, {"type": "Feature", "geometry": {"type": "Point", "coordinates": [-90.48325, 38.787088]}, "properties": {"id": "71", "school": "St. Charles Borromeo School", "type": "Elementary School", "street": "431 Decatur Street", "city": "St. Charles", "state": "MO", "zip": "63301-2074"}}, {"type": "Feature", "geometry": {"type": "Point", "coordinates": [-90.574812, 38.605219]}, "properties": {"id": "72", "school": "St. Clare of Assisi School", "type": "Elementary School", "street": "15668 Clayton Road", "city": "Ellisville", "state": "MO", "zip": "63011-2311"}}, {"type": "Feature", "geometry": {"type": "Point", "coordinates": [-90.986001, 38.342313]}, "properties": {"id": "73", "school": "St. Clare School (St. Clair)", "type": "Elementary School", "street": "125 E. Springfield Avenue", "city": "St. Clair", "state": "MO", "zip": "63077-1727"}}, {"type": "Feature", "geometry": {"type": "Point", "coordinates": [-90.433521, 38.609563]}, "properties": {"id": "74", "school": "St. Clement of Rome School", "type": "Elementary School", "street": "1508 Bopp Road", "city": "St. Louis", "state": "MO", "zip": "63131-4137"}}, {"type": "Feature", "geometry": {"type": "Point", "coordinates": [-90.535921, 38.802322]}, "properties": {"id": "75", "school": "St. Cletus School", "type": "Elementary School", "street": "2721 Zumbehl Road", "city": "St. Charles", "state": "MO", "zip": "63301-1135"}}, {"type": "Feature", "geometry": {"type": "Point", "coordinates": [-90.725493, 38.857443]}, "properties": {"id": "76", "school": "St. Dominic High School", "type": "High School", "street": "31 St. Dominic Dr.", "city": "O'Fallon", "state": "MO", "zip": "63366-2395"}}, {"type": "Feature", "geometry": {"type": "Point", "coordinates": [-90.353338, 38.80627]}, "properties": {"id": "77", "school": "St. Ferdinand School", "type": "Elementary School", "street": "1735 Charbonier Road", "city": "Florissant", "state": "MO", "zip": "63031-5403"}}, {"type": "Feature", "geometry": {"type": "Point", "coordinates": [-90.229486, 38.601277]}, "properties": {"id": "78", "school": "St. Frances Cabrini Academy", "type": "Elementary School", "street": "3022 Oregon Ave.", "city": "St. Louis", "state": "MO", "zip": "63118-1412"}}, {"type": "Feature", "geometry": {"type": "Point", "coordinates": [-91.025392, 38.551136]}, "properties": {"id": "79", "school": "St. Francis Borgia Regional High School", "type": "High School", "street": "1000 Borgia Dr.", "city": "Washington", "state": "MO", "zip": "63090-4112"}}, {"type": "Feature", "geometry": {"type": "Point", "coordinates": [-91.015305, 38.560049]}, "properties": {"id": "80", "school": "St. Francis Borgia School", "type": "Elementary School", "street": "225 Cedar Street", "city": "Washington", "state": "MO", "zip": "63090-2334"}}, {"type": "Feature", "geometry": {"type": "Point", "coordinates": [-90.303976, 38.479757]}, "properties": {"id": "81", "school": "St. Francis of Assisi School", "type": "Elementary School", "street": "4550 Telegraph Road", "city": "St. Louis", "state": "MO", "zip": "63129-3318"}}, {"type": "Feature", "geometry": {"type": "Point", "coordinates": [-90.29873, 38.588289]}, "properties": {"id": "82", "school": "St. Gabriel the Archangel School", "type": "Elementary School", "street": "4711 Tamm Avenue", "city": "St. Louis", "state": "MO", "zip": "63109-2797"}}, {"type": "Feature", "geometry": {"type": "Point", "coordinates": [-90.576481, 38.603103]}, "properties": {"id": "83", "school": "St. Gemma Center", "type": "Special Education School", "street": "15712 Clayton Road", "city": "Ellisville", "state": "MO", "zip": "63011-2300"}}, {"type": "Feature", "geometry": {"type": "Point", "coordinates": [-90.442889, 38.585604]}, "properties": {"id": "84", "school": "St. Gerard Majella School", "type": "Elementary School", "street": "2005 Dougherty Ferry Road", "city": "Kirkwood", "state": "MO", "zip": "63122-3526"}}, {"type": "Feature", "geometry": {"type": "Point", "coordinates": [-91.026457, 38.562781]}, "properties": {"id": "85", "school": "St. Gertrude School", "type": "Elementary School", "street": "6520 Highway YY", "city": "Washington", "state": "MO", "zip": "63090-4071"}}, {"type": "Feature", "geometry": {"type": "Point", "coordinates": [-91.139559, 38.649409]}, "properties": {"id": "86", "school": "St. Ignatius School", "type": "Elementary School", "street": "19129 Mill Road", "city": "Marthasville", "state": "MO", "zip": "63357-3096"}}, {"type": "Feature", "geometry": {"type": "Point", "coordinates": [-90.293285, 38.625279]}, "properties": {"id": "87", "school": "St. James the Greater School", "type": "Elementary School", "street": "1360 Tamm Avenue", "city": "St. Louis", "state": "MO", "zip": "63139-3434"}}, {"type": "Feature", "geometry": {"type": "Point", "coordinates": [-90.756798, 38.016161]}, "properties": {"id": "88", "school": "St. Joachim School", "type": "Elementary School", "street": "10121 Crest Road", "city": "Cadet", "state": "MO", "zip": "63630-9629"}}, {"type": "Feature", "geometry": {"type": "Point", "coordinates": [-90.939984, 38.484513]}, "properties": {"id": "89", "school": "St. John the Baptist School (Gildehaus)", "type": "Elementary School", "street": "5579 Gildehaus Road", "city": "Villa Ridge", "state": "MO", "zip": "63089-1228"}}, {"type": "Feature", "geometry": {"type": "Point", "coordinates": [-90.410647, 38.561117]}, "properties": {"id": "90", "school": "St. John Vianney High School", "type": "High School", "street": "1311 South Kirkwood Road", "city": "St. Louis", "state": "MO", "zip": "63122"}}, {"type": "Feature", "geometry": {"type": "Point", "coordinates": [-90.652347, 38.74283]}, "properties": {"id": "91", "school": "St. Joseph School (Cottleville)", "type": "Elementary School", "street": "1351 Motherhead Road", "city": "St. Charles", "state": "MO", "zip": "63304-7686"}}, {"type": "Feature", "geometry": {"type": "Point", "coordinates": [-90.415564, 37.779176]}, "properties": {"id": "92", "school": "St. Joseph School (Farmington)", "type": "Elementary School", "street": "501 Ste. Genevieve Street", "city": "Farmington", "state": "MO", "zip": "63640-3158"}}, {"type": "Feature", "geometry": {"type": "Point", "coordinates": [-90.39113, 38.368778]}, "properties": {"id": "93", "school": "St. Joseph School (Imperial)", "type": "Elementary School", "street": "6024 Old Antonia Road", "city": "Imperial", "state": "MO", "zip": "63052-2268"}}, {"type": "Feature", "geometry": {"type": "Point", "coordinates": [-90.79592, 38.843746]}, "properties": {"id": "94", "school": "St. Joseph School (Josephville)", "type": "Elementary School", "street": "1410 Josephville Road", "city": "Wentzville", "state": "MO", "zip": "63385-3009"}}, {"type": "Feature", "geometry": {"type": "Point", "coordinates": [-90.518172, 38.587571]}, "properties": {"id": "95", "school": "St. Joseph School (Manchester)", "type": "Elementary School", "street": "555 St. Joseph Lane", "city": "Manchester", "state": "MO", "zip": "63021-5394"}}, {"type": "Feature", "geometry": {"type": "Point", "coordinates": [-90.142849, 37.953586]}, "properties": {"id": "96", "school": "St. Joseph School (Zell)", "type": "Elementary School", "street": "11822 Zell Road", "city": "Ste. Genevieve", "state": "MO", "zip": "63670-8025"}}, {"type": "Feature", "geometry": {"type": "Point", "coordinates": [-90.335312, 38.578793]}, "properties": {"id": "97", "school": "St. Joseph Special Services", "type": "Special Education School", "street": "20 Archbishop May Drive", "city": "St. Louis", "state": "MO", "zip": "63119-5738"}}, {"type": "Feature", "geometry": {"type": "Point", "coordinates": [-90.40793, 38.624656]}, "properties": {"id": "98", "school": "St. Joseph's Academy", "type": "High School", "street": "2307 South Lindbergh Boulevard", "city": "St. Louis", "state": "MO", "zip": "63131"}}, {"type": "Feature", "geometry": {"type": "Point", "coordinates": [-90.391154, 38.543702]}, "properties": {"id": "99", "school": "St. Justin Martyr School", "type": "Elementary School", "street": "11914 Eddie and Park Road", "city": "St. Louis", "state": "MO", "zip": "63126-2908"}}, {"type": "Feature", "geometry": {"type": "Point", "coordinates": [-90.238547, 38.680933]}, "properties": {"id": "100", "school": "St. Louis Catholic Academy", "type": "Elementary School", "street": "4720 Carter Ave.", "city": "St. Louis", "state": "MO", "zip": "63115-2295"}}, {"type": "Feature", "geometry": {"type": "Point", "coordinates": [-90.47882, 38.644129]}, "properties": {"id": "101", "school": "St. Louis Priory School", "type": "High School", "street": "500 South Mason Road", "city": "St. Louis", "state": "MO", "zip": "63141-8522"}}, {"type": "Feature", "geometry": {"type": "Point", "coordinates": [-90.47882, 38.644129]}, "properties": {"id": "102", "school": "St. Louis Priory School (7&8)", "type": "Elementary School", "street": "500 South Mason Road", "city": "St. Louis", "state": "MO", "zip": "63141"}}, {"type": "Feature", "geometry": {"type": "Point", "coordinates": [-90.266348, 38.629081]}, "properties": {"id": "103", "school": "St. Louis University High School", "type": "High School", "street": "4970 Oakland Avenue", "city": "St. Louis", "state": "MO", "zip": "63110"}}, {"type": "Feature", "geometry": {"type": "Point", "coordinates": [-90.329693, 38.486291]}, "properties": {"id": "104", "school": "St. Margaret Mary Alacoque School", "type": "Elementary School", "street": "4900 Ringer Road", "city": "St. Louis", "state": "MO", "zip": "63129-1797"}}, {"type": "Feature", "geometry": {"type": "Point", "coordinates": [-90.246475, 38.614744]}, "properties": {"id": "105", "school": "St. Margaret of Scotland School", "type": "Elementary School", "street": "3964 Castleman Avenue", "city": "St. Louis", "state": "MO", "zip": "63110-3799"}}, {"type": "Feature", "geometry": {"type": "Point", "coordinates": [-90.305806, 38.534874]}, "properties": {"id": "106", "school": "St. Mark School", "type": "Elementary School", "street": "4220 Ripa Avenue", "city": "St. Louis", "state": "MO", "zip": "63125-2331"}}, {"type": "Feature", "geometry": {"type": "Point", "coordinates": [-90.347801, 38.613238]}, "properties": {"id": "107", "school": "St. Mary Magdalen School", "type": "Elementary School", "street": "8750 Magdalen Avenue", "city": "Brentwood", "state": "MO", "zip": "63144-2318"}}, {"type": "Feature", "geometry": {"type": "Point", "coordinates": [-90.249065, 38.574696]}, "properties": {"id": "108", "school": "St. Mary's High School", "type": "High School", "street": "4701 S. Grand Blvd.", "city": "St. Louis", "state": "MO", "zip": "63111-1498"}}, {"type": "Feature", "geometry": {"type": "Point", "coordinates": [-90.300927, 38.542762]}, "properties": {"id": "109", "school": "St. Mary's Preschool", "type": "Special Education School", "street": "1045 Union Road", "city": "St. Louis", "state": "MO", "zip": "63123-6648"}}, {"type": "Feature", "geometry": {"type": "Point", "coordinates": [-90.451253, 38.671087]}, "properties": {"id": "110", "school": "St. Monica School", "type": "Elementary School", "street": "12132 Olive Blvd.", "city": "St. Louis", "state": "MO", "zip": "63141-3551"}}, {"type": "Feature", "geometry": {"type": "Point", "coordinates": [-90.31927, 38.838534]}, "properties": {"id": "111", "school": "St. Norbert School", "type": "Elementary School", "street": "16475 New Halls Ferry Road", "city": "Florissant", "state": "MO", "zip": "63031-1131"}}, {"type": "Feature", "geometry": {"type": "Point", "coordinates": [-90.855146, 38.807466]}, "properties": {"id": "112", "school": "St. Patrick School", "type": "Elementary School", "street": "701 Church Street", "city": "Wentzville", "state": "MO", "zip": "63385-1611"}}, {"type": "Feature", "geometry": {"type": "Point", "coordinates": [-90.44732, 38.516103]}, "properties": {"id": "113", "school": "St. Paul School (Fenton)", "type": "Elementary School", "street": "465 New Smizer Mill Road", "city": "Fenton", "state": "MO", "zip": "63026-3551"}}, {"type": "Feature", "geometry": {"type": "Point", "coordinates": [-90.743337, 38.86215]}, "properties": {"id": "114", "school": "St. Paul School (St. Paul)", "type": "Elementary School", "street": "1235 Church Road", "city": "St. Paul", "state": "MO", "zip": "63366-5105"}}, {"type": "Feature", "geometry": {"type": "Point", "coordinates": [-90.408942, 38.579448]}, "properties": {"id": "115", "school": "St. Peter School (Kirkwood)", "type": "Elementary School", "street": "215 N. Clay Street", "city": "Kirkwood", "state": "MO", "zip": "63122-6312"}}, {"type": "Feature", "geometry": {"type": "Point", "coordinates": [-90.39595, 38.22061]}, "properties": {"id": "116", "school": "St. Pius X High School", "type": "High School", "street": "1030 St. Pius Dr.", "city": "Festus", "state": "MO", "zip": "63028-3746"}}, {"type": "Feature", "geometry": {"type": "Point", "coordinates": [-90.302939, 38.576057]}, "properties": {"id": "117", "school": "St. Raphael the Archangel School", "type": "Elementary School", "street": "6000 Jamieson Avenue", "city": "St. Louis", "state": "MO", "zip": "63109-3301"}}, {"type": "Feature", "geometry": {"type": "Point", "coordinates": [-90.295235, 38.650248]}, "properties": {"id": "118", "school": "St. Roch School", "type": "Elementary School", "street": "6040 Waterman Blvd.", "city": "St. Louis", "state": "MO", "zip": "63112-1213"}}, {"type": "Feature", "geometry": {"type": "Point", "coordinates": [-90.558696, 38.135212]}, "properties": {"id": "119", "school": "St. Rose of Lima School (DeSoto)", "type": "Elementary School", "street": "523 South 4th St.", "city": "DeSoto", "state": "MO", "zip": "63020-1903"}}, {"type": "Feature", "geometry": {"type": "Point", "coordinates": [-90.346996, 38.524135]}, "properties": {"id": "120", "school": "St. Simon the Apostle School", "type": "Elementary School", "street": "11019 Mueller Road", "city": "St. Louis", "state": "MO", "zip": "63123-6942"}}, {"type": "Feature", "geometry": {"type": "Point", "coordinates": [-90.262851, 38.5695]}, "properties": {"id": "121", "school": "St. Stephen Protomartyr School", "type": "Elementary School", "street": "3929 Wilmington Avenue", "city": "St. Louis", "state": "MO", "zip": "63116-3290"}}, {"type": "Feature", "geometry": {"type": "Point", "coordinates": [-90.864601, 38.85515]}, "properties": {"id": "122", "school": "St. Theodore School", "type": "Elementary School", "street": "5059 Highway P", "city": "Wentzville", "state": "MO", "zip": "63385-2118"}}, {"type": "Feature", "geometry": {"type": "Point", "coordinates": [-90.98363, 38.592743]}, "properties": {"id": "123", "school": "St. Vincent de Paul School (Dutzow)", "type": "Elementary School", "street": "13495 S. State Highway 94", "city": "Marthasville", "state": "MO", "zip": "63357-2686"}}, {"type": "Feature", "geometry": {"type": "Point", "coordinates": [-89.887186, 37.727689]}, "properties": {"id": "124", "school": "St. Vincent de Paul School (Perryville)", "type": "Elementary School", "street": "1007 W. St. Joseph", "city": "Perryville", "state": "MO", "zip": "63775-1657"}}, {"type": "Feature", "geometry": {"type": "Point", "coordinates": [-89.874483, 37.722394]}, "properties": {"id": "125", "school": "St. Vincent High School", "type": "High School", "street": "210 South Waters Street", "city": "Perryville", "state": "MO", "zip": "63775-2308"}}, {"type": "Feature", "geometry": {"type": "Point", "coordinates": [-89.874483, 37.722394]}, "properties": {"id": "126", "school": "St. Vincent Junior High School (7-8)", "type": "Elementary School", "street": "210 South Waters Street", "city": "Perryville", "state": "MO", "zip": "63775"}}, {"type": "Feature", "geometry": {"type": "Point", "coordinates": [-90.398034, 38.61004]}, "properties": {"id": "127", "school": "Ste. Genevieve Du Bois School", "type": "Elementary School", "street": "1575 N. Woodlawn Avenue", "city": "St. Louis", "state": "MO", "zip": "63122-1462"}}, {"type": "Feature", "geometry": {"type": "Point", "coordinates": [-90.59855, 38.75543]}, "properties": {"id": "128", "school": "Sts. Joachim and Ann School", "type": "Elementary School", "street": "4110 McClay Road", "city": "St. Charles", "state": "MO", "zip": "63304-7918"}}, {"type": "Feature", "geometry": {"type": "Point", "coordinates": [-90.34427, 38.814659]}, "properties": {"id": "129", "school": "The Academy at St. Sabina", "type": "Special Education School", "street": "1625 Swallow Lane", "city": "Florissant", "state": "MO", "zip": "63031-3420"}}, {"type": "Feature", "geometry": {"type": "Point", "coordinates": [-90.223401, 38.785078]}, "properties": {"id": "130", "school": "Trinity Catholic High School", "type": "High School", "street": "1720 Redman Rd.", "city": "St. Louis", "state": "MO", "zip": "63138-1797"}}, {"type": "Feature", "geometry": {"type": "Point", "coordinates": [-90.387739, 38.576823]}, "properties": {"id": "131", "school": "Ursuline Academy", "type": "High School", "street": "341 S. Sappington Road", "city": "St. Louis", "state": "MO", "zip": "63122-6331"}}, {"type": "Feature", "geometry": {"type": "Point", "coordinates": [-90.047649, 37.979894]}, "properties": {"id": "132", "school": "Valle Catholic Grade School", "type": "Elementary School", "street": "40A N. 4th Street", "city": "Ste. Genevieve", "state": "MO", "zip": "63670-1306"}}, {"type": "Feature", "geometry": {"type": "Point", "coordinates": [-90.047649, 37.979894]}, "properties": {"id": "133", "school": "Valle Catholic High School", "type": "High School", "street": "40 N. 4th Street", "city": "Ste. Genevieve", "state": "MO", "zip": "63670-1306"}}, {"type": "Feature", "geometry": {"type": "Point", "coordinates": [-90.415759, 38.644262]}, "properties": {"id": "134", "school": "Villa Duchesne and Oak Hill School", "type": "High School", "street": "801 S.Spoede Road", "city": "St. Louis", "state": "MO", "zip": "63131-2606"}}, {"type": "Feature", "geometry": {"type": "Point", "coordinates": [-90.415759, 38.644262]}, "properties": {"id": "135", "school": "Villa Duchesne and Oak Hill School  (PK-6)", "type": "Elementary School", "street": "801 South Spoede Road", "city": "St. Louis", "state": "MO", "zip": "63131-2606"}}, {"type": "Feature", "geometry": {"type": "Point", "coordinates": [-90.415759, 38.644262]}, "properties": {"id": "136", "school": "Villa Duchesne and Oak Hill School (7-8)", "type": "Elementary School", "street": "801 South Spoede Road", "city": "St. Louis", "state": "MO", "zip": "63131-2606"}}, {"type": "Feature", "geometry": {"type": "Point", "coordinates": [-90.441565, 38.636671]}, "properties": {"id": "137", "school": "Visitation Academy", "type": "High School", "street": "3020 N. Ballas Road", "city": "St. Louis", "state": "MO", "zip": "63131-2316"}}, {"type": "Feature", "geometry": {"type": "Point", "coordinates": [-90.441565, 38.636671]}, "properties": {"id": "138", "school": "Visitation Academy  (PK-5)", "type": "Elementary School", "street": "3020 N. Ballas Road", "city": "St. Louis", "state": "MO", "zip": "63131-2316"}}, {"type": "Feature", "geometry": {"type": "Point", "coordinates": [-90.441565, 38.636671]}, "properties": {"id": "139", "school": "Visitation Academy (6-8)", "type": "Elementary School", "street": "3020 North Ballas Road", "city": "St. Louis", "state": "MO", "zip": "63131"}}]}