{"type":"Topology","objects":{"collection":{"type":"GeometryCollection","geometries":[{"type":"Point","properties":{"place":"Airport Elementary","address":"8249 Airport Road","city":"Berkeley","Zip":""},"coordinates":[1224,8177]},{"type":"Point","properties":{"place":"Al Chappelle Center","address":"1401 LaSalle","city":"St. Louis","Zip":63104},"coordinates":[8943,0]},{"type":"Point","properties":{"place":"All Creation Northview Holiness Family Church","address":"1442 Hudson Rd","city":"St. Louis","Zip":63135},"coordinates":[4070,8778]},{"type":"Point","properties":{"place":"Asbury United Church","address":"4001 Maffit","city":"Saint Louis","Zip":63113},"coordinates":[7417,2461]},{"type":"Point","properties":{"place":"Baden Enrichment STEM Center","address":"1018-22 Baden Avenue","city":"St Louis","Zip":63147},"coordinates":[7301,5751]},{"type":"Point","properties":{"place":"Baptist Church of Holy Communion","address":"7515 Melrose Ave","city":"University City","Zip":63130},"coordinates":[891,3391]},{"type":"Point","properties":{"place":"Barrett Brothers Park","address":"Goodfellow and St. Louis Ave.","city":"St. Louis","Zip":63120},"coordinates":[4731,3919]},{"type":"Point","properties":{"place":"Beaumont High","address":"3836 Natural Bridge Avenue","city":"St. Louis","Zip":63107},"coordinates":[7955,2758]},{"type":"Point","properties":{"place":"Better Family Life, Inc","address":"5415 Page Ave","city":"St. Louis","Zip":63130},"coordinates":[4536,2744]},{"type":"Point","properties":{"place":"Blumeyer Village Tenant Assoc","address":"3230 School Street","city":"St Louis","Zip":63106},"coordinates":[7712,1482]},{"type":"Point","properties":{"place":"Boys and Girls Club - Herbert Hoover","address":"2901 N. Grand","city":"St. Louis","Zip":63107},"coordinates":[8038,2379]},{"type":"Point","properties":{"place":"Boys and Girls Club - O'Fallon Park","address":"4343 W Florissant Ave","city":"St. Louis","Zip":63136},"coordinates":[7754,3836]},{"type":"Point","properties":{"place":"Boys and Girls Club at Southeast Middle School Club","address":"918 Prigge Road","city":"St. Louis","Zip":63138},"coordinates":[9699,9999]},{"type":"Point","properties":{"place":"Boys and Girls Club of Greater St. Louis - Adams Park Club","address":"4317 Vista Ave.","city":"St. Louis","Zip":63110},"coordinates":[5648,370]},{"type":"Point","properties":{"place":"Cambridge Site","address":"7015 Glen Park Walk","city":"St Louis","Zip":63121},"coordinates":[3262,5836]},{"type":"Point","properties":{"place":"Camp Sun Splash","address":"1007 N. Taylor Ave.","city":"St. Louis","Zip":63122},"coordinates":[6006,2146]},{"type":"Point","properties":{"place":"Carr Square Tools Program","address":"1629 Biddle","city":"St. Louis","Zip":63106},"coordinates":[9314,1251]},{"type":"Point","properties":{"place":"Celestial Temple of Peace","address":"5501 Oriole","city":"St. Louis","Zip":63144},"coordinates":[6140,5302]},{"type":"Point","properties":{"place":"Centennial Commons Summer Camp","address":"7210 Olive Street Road","city":"Saint Louis","Zip":63103},"coordinates":[1533,3084]},{"type":"Point","properties":{"place":"Central Elementary","address":"201 Wesley Ave","city":"Fergson","Zip":63135},"coordinates":[2319,7671]},{"type":"Point","properties":{"place":"Cochran Plaza","address":"1420 N. 10th Street","city":"St Louis","Zip":63101},"coordinates":[9867,1227]},{"type":"Point","properties":{"place":"Coleman Wright","address":"9777 Halls Ferry Rd.","city":"St. Louis","Zip":63136},"coordinates":[6052,7482]},{"type":"Point","properties":{"place":"Collegiate School of Medicine and Bioscience","address":"1547 S. Theresa","city":"St Louis","Zip":63104},"coordinates":[6979,102]},{"type":"Point","properties":{"place":"Cote Brilliante Presbyterian","address":"4673 Labadie","city":"St. Louis","Zip":63115},"coordinates":[6330,3087]},{"type":"Point","properties":{"place":"Dellwood Recreation Center","address":"10266 W Florissant Rd.","city":"Dellwood","Zip":63121},"coordinates":[4340,8493]},{"type":"Point","properties":{"place":"Education Exchange Corps","address":"1435 Mallinekrodt Street","city":"St. Louis","Zip":63107},"coordinates":[9381,2607]},{"type":"Point","properties":{"place":"Fair Ground Football Camp","address":"Natural Bridge and Vandeventer","city":"St Louis","Zip":63121},"coordinates":[7858,2807]},{"type":"Point","properties":{"place":"Fairground Park","address":"Nautral Bridge and Vandevender","city":"St. Louis","Zip":63120},"coordinates":[7858,2807]},{"type":"Point","properties":{"place":"Fairview Height","address":"8850 Cozen","city":"Jennings","Zip":63136},"coordinates":[5797,6718]},{"type":"Point","properties":{"place":"Ferguson Community Center","address":"1050 Smith Ave","city":"Ferguson","Zip":63135},"coordinates":[3510,8618]},{"type":"Point","properties":{"place":"Ferguson Golden Lions","address":"9549 Owens","city":"Ferguson","Zip":""},"coordinates":[4943,7551]},{"type":"Point","properties":{"place":"Florissant Assembly of God","address":"1425 S. New Florissant Rd.","city":"Florissant","Zip":63031},"coordinates":[1724,9697]},{"type":"Point","properties":{"place":"Friendship Baptist Church","address":"5597 Etzel","city":"St. Louis","Zip":63112},"coordinates":[4177,2802]},{"type":"Point","properties":{"place":"Girls Inc at Cardinal Ritter","address":"701 N Spring Ave","city":"St Louis","Zip":63110},"coordinates":[7069,1470]},{"type":"Point","properties":{"place":"Girls Inc. - Main Facility","address":"3801 Nelson Drive","city":"St. Louis","Zip":63121},"coordinates":[3791,5047]},{"type":"Point","properties":{"place":"Girls University","address":"333 N. Florissant Ave.","city":"Ferguson","Zip":63136},"coordinates":[2356,8143]},{"type":"Point","properties":{"place":"Gregory J. Carter Park-Mobile","address":"5800 Lillian Ave.","city":"St. Louis","Zip":63120},"coordinates":[5670,4972]},{"type":"Point","properties":{"place":"Holman Elementary","address":"8811 Harold Drive","city":"Berkeley","Zip":71822},"coordinates":[0,6527]},{"type":"Point","properties":{"place":"Holy Center Church","address":"8735 Goodfellow Blvd","city":"St. Louis","Zip":63147},"coordinates":[6100,6226]},{"type":"Point","properties":{"place":"Innovative Concepts Academy","address":"1927 Cass Avenue","city":"St Louis","Zip":63106},"coordinates":[9058,1527]},{"type":"Point","properties":{"place":"Kids World Gymnastics","address":"8701 Dunn Road","city":"Hazelwood","Zip":63042},"coordinates":[395,9779]},{"type":"Point","properties":{"place":"Lift for LIfe","address":"1415 Cass Ave.","city":"St. Louis","Zip":63106},"coordinates":[9602,1438]},{"type":"Point","properties":{"place":"Little Creek Nature Area","address":"2295 Dunn Rd","city":"Florissant","Zip":63033},"coordinates":[3405,9499]},{"type":"Point","properties":{"place":"Mathew Dickey","address":"4245 N. Kingshighway Blvd.","city":"St. Louis","Zip":63115},"coordinates":[6236,3922]},{"type":"Point","properties":{"place":"Mcluer High School","address":"1896 S. New Florissant Rd","city":"Florissant","Zip":63031},"coordinates":[1904,9496]},{"type":"Point","properties":{"place":"Memorial Tabernacle Christian Life Center","address":"1350 S. Lafayette","city":"St. Louis County","Zip":63031},"coordinates":[1007,9825]},{"type":"Point","properties":{"place":"Mid-Town Catholic Family Services","address":"1202 S. Boyle","city":"St. Louis","Zip":63110},"coordinates":[5870,503]},{"type":"Point","properties":{"place":"Midwest Mustangs Football","address":"7047 Emma Ave","city":"St Louis","Zip":63136},"coordinates":[4970,5803]},{"type":"Point","properties":{"place":"Miracle Temple Complex","address":"4001 Jenning Station Rd.","city":"St. Louis","Zip":63121},"coordinates":[4507,4701]},{"type":"Point","properties":{"place":"Monsanto Family YMCA","address":"5555 Page Blvd","city":"St. Louis","Zip":63112},"coordinates":[4340,2840]},{"type":"Point","properties":{"place":"Mt. Zion MB Church","address":"1444 S. Compton Ave","city":"St. Louis","Zip":63104},"coordinates":[7320,132]},{"type":"Point","properties":{"place":"Murphy Blair","address":"1735 N. 13th","city":"St Louis","Zip":63106},"coordinates":[9739,1567]},{"type":"Point","properties":{"place":"NH @ Jackson Park Elementary","address":"7400 Balson Ave.","city":"University City","Zip":63130},"coordinates":[1107,2842]},{"type":"Point","properties":{"place":"NH@Immanuel United Church of Christ","address":"221 Church Street","city":"Ferguson","Zip":63135},"coordinates":[2753,7847]},{"type":"Point","properties":{"place":"NH@St John's United Church of Christ","address":"4136 N. Grand Blvd","city":"St Louis","Zip":63107},"coordinates":[8465,2937]},{"type":"Point","properties":{"place":"NH@St. Peter's United Church of Christ","address":"1425 Stein Road","city":"Ferguson","Zip":63135},"coordinates":[4085,8565]},{"type":"Point","properties":{"place":"Neighborhood Gardens","address":"1200 North 8th Street","city":"St Louis","Zip":63106},"coordinates":[9972,1101]},{"type":"Point","properties":{"place":"Neighborhood Houses @ SLACO","address":"5888 Plymouth Ave.","city":"St. Louis","Zip":63112},"coordinates":[3698,2905]},{"type":"Point","properties":{"place":"New Sunny Mount MBC","address":"4638 West Florissant","city":"St. Louis","Zip":63025},"coordinates":[7230,4199]},{"type":"Point","properties":{"place":"Noah's Ark Summer Day Camp(Friendly Temple MB Church)","address":"5544 Dr. Martin Luther King Dr.","city":"St. Louis","Zip":63112},"coordinates":[4593,3124]},{"type":"Point","properties":{"place":"North Campus Partnership - The Learning Center","address":"4028 W. Florissant Ave.","city":"St. Louis","Zip":63107},"coordinates":[8079,3424]},{"type":"Point","properties":{"place":"North Campus Partnership - The Sanctuary","address":"4449 Red Bud Ave.","city":"St. Louis","Zip":63115},"coordinates":[7659,3543]},{"type":"Point","properties":{"place":"North County Christian School","address":"845 Dunn Rd","city":"Florissant","Zip":63031},"coordinates":[1172,9700]},{"type":"Point","properties":{"place":"Northside Community Center","address":"4120 Maffit","city":"St. Louis","Zip":63113},"coordinates":[7235,2537]},{"type":"Point","properties":{"place":"O'Fallon Place","address":"1405 N. 16th St","city":"St Louis","Zip":63106},"coordinates":[9378,1398]},{"type":"Point","properties":{"place":"Operation Food Search Mobile - Botanical Heights","address":"4105 Blane Ave","city":"St Louis","Zip":63110},"coordinates":[6111,111]},{"type":"Point","properties":{"place":"Operation Food Search Mobile - Castle Point Park","address":"2465 Baroness","city":"St Louis","Zip":63136},"coordinates":[6480,8852]},{"type":"Point","properties":{"place":"Operation Food Search Mobile - Glen Owen","address":"9556 Glen Owen St.","city":"St. Louis","Zip":63136},"coordinates":[4953,7564]},{"type":"Point","properties":{"place":"Operation Food Search Mobile - Laurel Park Apts.","address":"9605 Jacobi Ave","city":"St Louis","Zip":63136},"coordinates":[5503,7555]},{"type":"Point","properties":{"place":"Operation Food Search Mobile - St Louis Bible Way Church","address":"6719 Page Ave","city":"St Louis","Zip":63133},"coordinates":[2516,3444]},{"type":"Point","properties":{"place":"Operation Food Search Mobile - Thomas Street","address":"3117 Thomas Street","city":"St Louis","Zip":63106},"coordinates":[7865,1578]},{"type":"Point","properties":{"place":"Operation Food Search Mobile - University Commons","address":"900 Westgate","city":"University City","Zip":63130},"coordinates":[2696,2637]},{"type":"Point","properties":{"place":"Operation Food Search Mobile - Wellston Place","address":"1552 Wellston Place","city":"St. Louis","Zip":63133},"coordinates":[3683,3744]},{"type":"Point","properties":{"place":"Operation Food Search Mobile Glasgow Village","address":"335 Shepley Dr.","city":"St. Louis","Zip":63137},"coordinates":[9212,8563]},{"type":"Point","properties":{"place":"PAIS Youth Development Center","address":"5057 Ridge Ave","city":"St Louis","Zip":63113},"coordinates":[5243,2707]},{"type":"Point","properties":{"place":"PAL-East Middle","address":"1865 Dunn Rd","city":"St Louis","Zip":63138},"coordinates":[7218,9428]},{"type":"Point","properties":{"place":"POP Kids Children's Min.","address":"9350 Natural Bridge Rd.","city":"Berkeley","Zip":72031},"coordinates":[306,6511]},{"type":"Point","properties":{"place":"Pagedale Family Support Center","address":"1404 Ferguson","city":"St. Louis","Zip":63133},"coordinates":[2445,3893]},{"type":"Point","properties":{"place":"Parkway District Step Camp","address":"4900 Manchester Ave.","city":"St. Louis","Zip":63110},"coordinates":[5159,474]},{"type":"Point","properties":{"place":"Pelton Jackson Park","address":"Intersection of Hamilton Ave and Kenewah Ave","city":"St. Louis","Zip":63101},"coordinates":[4985,5085]},{"type":"Point","properties":{"place":"Places for People","address":"4120 Lindell","city":"St. Louis","Zip":63132},"coordinates":[6324,1320]},{"type":"Point","properties":{"place":"Restore St Louis","address":"1142 Hodiamont","city":"St Louis","Zip":63112},"coordinates":[3414,2900]},{"type":"Point","properties":{"place":"River Roads Lutheran School","address":"8623 Church Rd","city":"St Louis","Zip":63147},"coordinates":[7179,6101]},{"type":"Point","properties":{"place":"Salvation Army - Euclid","address":"2618 N Eculid","city":"St Louis","Zip":63113},"coordinates":[5808,3017]},{"type":"Point","properties":{"place":"Sew Cute Sewing Camp and Workshops","address":"905 S. Florissant Rd.","city":"St Louis","Zip":63135},"coordinates":[2793,7099]},{"type":"Point","properties":{"place":"Shalom Church - City of Peace Dev. Corp.","address":"6134 Garfield Ave","city":"St Louis","Zip":63134},"coordinates":[785,8045]},{"type":"Point","properties":{"place":"Soul Fisher Ministries St. Stephens","address":"33 N. Clay Ave.","city":"Ferguson","Zip":63135},"coordinates":[2868,7880]},{"type":"Point","properties":{"place":"St James M.B. Church","address":"1644 Semple Ave","city":"St Louis","Zip":63112},"coordinates":[4755,3111]},{"type":"Point","properties":{"place":"St Louis Housing Autority - Camp Sun Splash","address":"1007 N Taylor Ave","city":"St Louis","Zip":63122},"coordinates":[6006,2146]},{"type":"Point","properties":{"place":"St. Louis County Library-Indian Trails Branch","address":"8400 Delport Drive","city":"St. Louis","Zip":63114},"coordinates":[397,4810]},{"type":"Point","properties":{"place":"St. Louis County Library-Lewis and Clark","address":"9909 Lewis-Clark Blvd.","city":"St. Louis","Zip":63135},"coordinates":[6704,7979]},{"type":"Point","properties":{"place":"Storman Lyons Academy - Camp Summer","address":"10014 Diamond","city":"St Louis","Zip":63137},"coordinates":[8607,8102]},{"type":"Point","properties":{"place":"The Journey Continues","address":"1514 Hodimont","city":"St Louis","Zip":63112},"coordinates":[3878,3516]},{"type":"Point","properties":{"place":"The Pink House","address":"1545 Salerno Drive","city":"St. Louis","Zip":63133},"coordinates":[2489,4371]},{"type":"Point","properties":{"place":"Third Presbyterian Church","address":"9926 Fonda Dr.","city":"St. Louis","Zip":63137},"coordinates":[7197,8091]},{"type":"Point","properties":{"place":"Tiffany Park","address":"3811 Blaine","city":"St. Louis","Zip":63110},"coordinates":[6573,71]},{"type":"Point","properties":{"place":"Torchlight Ministries of St. Louis","address":"3625 North Garrision","city":"St. Louis","Zip":63101},"coordinates":[8331,2547]},{"type":"Point","properties":{"place":"Trinity Episcopal Church","address":"600 N. Euclid Ave","city":"St Louis","Zip":63108},"coordinates":[5433,1961]},{"type":"Point","properties":{"place":"UCM Vacation Bible Camp","address":"4492-96 Bircher Blvd","city":"St. Louis","Zip":63120},"coordinates":[7134,3948]},{"type":"Point","properties":{"place":"UJAMAA Comm. Dev. Corp & Black Family Land Trust","address":"5076 West Florissant Ave","city":"St Louis","Zip":63115},"coordinates":[6921,4588]},{"type":"Point","properties":{"place":"Wesley House Association","address":"4507 Lee","city":"St. Louis","Zip":63126},"coordinates":[6942,3597]},{"type":"Point","properties":{"place":"West Side MBC","address":"4675 Page","city":"St. Louis","Zip":63130},"coordinates":[5825,2469]},{"type":"Point","properties":{"place":"Wohl's","address":"1515 N. Kingshighway Blvd","city":"St. Louis","Zip":63113},"coordinates":[5377,2773]},{"type":"Point","properties":{"place":"Word of Faith Church","address":"6923 W. Florrisant Ave","city":"Jennings","Zip":63136},"coordinates":[5442,6114]},{"type":"Point","properties":{"place":"YMCA- Emerson","address":"3390 Pershall Rd","city":"St Louis","Zip":63135},"coordinates":[4060,9392]},{"type":"Point","properties":{"place":"Youth & Family Center","address":"818 Cass","city":"St. Louis","Zip":63123},"coordinates":[9999,1329]},{"type":"Point","properties":{"place":"Zion Travelers Missionsary Baptist Church-Outreach Ministries","address":"351 Chambers","city":"St. Louis","Zip":""},"coordinates":[8625,8064]},{"type":"Point","properties":{"place":"Hickey Park","address":"8674 N Broadway","city":"St. Louis","Zip":63147},"coordinates":[7559,6378]}]}},"arcs":[],"transform":{"scale":[0.000015655365536554837,0.000016182218221822037],"translate":[-90.34574,38.618333]},"bbox":[-90.34574,38.618333,-90.189202,38.780139]}